CCSDS_OMM_VERS = 2.0
CREATION_DATE  = 
ORIGINATOR     = 

OBJECT_NAME    = STARLINK-35512
OBJECT_ID      = 2025-253M
CENTER_NAME    = EARTH
REF_FRAME      = TEME
TIME_SYSTEM    = UTC
MEAN_ELEMENT_THEORY = SGP/SGP4

EPOCH          = 2025-11-22T12:00:02.998944
MEAN_MOTION    = 15.70840477
ECCENTRICITY   = .0001377
INCLINATION    = 42.9993
RA_OF_ASC_NODE = 103.4884
ARG_OF_PERICENTER = 283.7038
MEAN_ANOMALY   = 176.5229

EPHEMERIS_TYPE = 0
CLASSIFICATION_TYPE = U
NORAD_CAT_ID   = 66330
ELEMENT_SET_NO = 999
REV_AT_EPOCH   = 367
BSTAR          = -.17488E-1
MEAN_MOTION_DOT = -.1981595E-1
MEAN_MOTION_DDOT = 0

CCSDS_OMM_VERS = 2.0
CREATION_DATE  = 
ORIGINATOR     = 

OBJECT_NAME    = STARLINK-35257
OBJECT_ID      = 2025-253N
CENTER_NAME    = EARTH
REF_FRAME      = TEME
TIME_SYSTEM    = UTC
MEAN_ELEMENT_THEORY = SGP/SGP4

EPOCH          = 2025-11-22T12:00:02.998944
MEAN_MOTION    = 15.70842907
ECCENTRICITY   = .0001293
INCLINATION    = 42.9993
RA_OF_ASC_NODE = 103.4493
ARG_OF_PERICENTER = 276.1524
MEAN_ANOMALY   = 199.4106

EPHEMERIS_TYPE = 0
CLASSIFICATION_TYPE = U
NORAD_CAT_ID   = 66331
ELEMENT_SET_NO = 999
REV_AT_EPOCH   = 340
BSTAR          = -.17517E-1
MEAN_MOTION_DOT = -.1984543E-1
MEAN_MOTION_DDOT = 0

CCSDS_OMM_VERS = 2.0
CREATION_DATE  = 
ORIGINATOR     = 

OBJECT_NAME    = STARLINK-35322
OBJECT_ID      = 2025-253P
CENTER_NAME    = EARTH
REF_FRAME      = TEME
TIME_SYSTEM    = UTC
MEAN_ELEMENT_THEORY = SGP/SGP4

EPOCH          = 2025-11-22T12:00:02.998944
MEAN_MOTION    = 15.70844247
ECCENTRICITY   = .0001391
INCLINATION    = 42.9994
RA_OF_ASC_NODE = 103.4730
ARG_OF_PERICENTER = 284.0447
MEAN_ANOMALY   = 181.9299

EPHEMERIS_TYPE = 0
CLASSIFICATION_TYPE = U
NORAD_CAT_ID   = 66332
ELEMENT_SET_NO = 999
REV_AT_EPOCH   = 367
BSTAR          = -.17524E-1
MEAN_MOTION_DOT = -.198541E-1
MEAN_MOTION_DDOT = 0

CCSDS_OMM_VERS = 2.0
CREATION_DATE  = 
ORIGINATOR     = 

OBJECT_NAME    = STARLINK-35400
OBJECT_ID      = 2025-253Q
CENTER_NAME    = EARTH
REF_FRAME      = TEME
TIME_SYSTEM    = UTC
MEAN_ELEMENT_THEORY = SGP/SGP4

EPOCH          = 2025-11-22T12:00:02.998944
MEAN_MOTION    = 15.70842158
ECCENTRICITY   = .0001429
INCLINATION    = 42.9992
RA_OF_ASC_NODE = 103.4534
ARG_OF_PERICENTER = 283.4609
MEAN_ANOMALY   = 190.1826

EPHEMERIS_TYPE = 0
CLASSIFICATION_TYPE = U
NORAD_CAT_ID   = 66333
ELEMENT_SET_NO = 999
REV_AT_EPOCH   = 367
BSTAR          = -.17498E-1
MEAN_MOTION_DOT = -.1982756E-1
MEAN_MOTION_DDOT = 0

CCSDS_OMM_VERS = 2.0
CREATION_DATE  = 
ORIGINATOR     = 

OBJECT_NAME    = STARLINK-35407
OBJECT_ID      = 2025-253R
CENTER_NAME    = EARTH
REF_FRAME      = TEME
TIME_SYSTEM    = UTC
MEAN_ELEMENT_THEORY = SGP/SGP4

EPOCH          = 2025-11-22T12:00:02.998944
MEAN_MOTION    = 15.70775317
ECCENTRICITY   = .0001386
INCLINATION    = 42.9992
RA_OF_ASC_NODE = 103.4691
ARG_OF_PERICENTER = 271.4188
MEAN_ANOMALY   = 196.5348

EPHEMERIS_TYPE = 0
CLASSIFICATION_TYPE = U
NORAD_CAT_ID   = 66334
ELEMENT_SET_NO = 999
REV_AT_EPOCH   = 367
BSTAR          = -.16956E-1
MEAN_MOTION_DOT = -.1923521E-1
MEAN_MOTION_DDOT = 0

CCSDS_OMM_VERS = 2.0
CREATION_DATE  = 
ORIGINATOR     = 

OBJECT_NAME    = STARLINK-35417
OBJECT_ID      = 2025-253S
CENTER_NAME    = EARTH
REF_FRAME      = TEME
TIME_SYSTEM    = UTC
MEAN_ELEMENT_THEORY = SGP/SGP4

EPOCH          = 2025-11-22T12:00:02.998944
MEAN_MOTION    = 15.70840360
ECCENTRICITY   = .0001269
INCLINATION    = 42.9995
RA_OF_ASC_NODE = 103.4300
ARG_OF_PERICENTER = 279.3444
MEAN_ANOMALY   = 203.8884

EPHEMERIS_TYPE = 0
CLASSIFICATION_TYPE = U
NORAD_CAT_ID   = 66335
ELEMENT_SET_NO = 999
REV_AT_EPOCH   = 367
BSTAR          = -.17493E-1
MEAN_MOTION_DOT = -.1981936E-1
MEAN_MOTION_DDOT = 0

CCSDS_OMM_VERS = 2.0
CREATION_DATE  = 
ORIGINATOR     = 

OBJECT_NAME    = STARLINK-35404
OBJECT_ID      = 2025-253T
CENTER_NAME    = EARTH
REF_FRAME      = TEME
TIME_SYSTEM    = UTC
MEAN_ELEMENT_THEORY = SGP/SGP4

EPOCH          = 2025-11-22T12:00:02.998944
MEAN_MOTION    = 15.70840082
ECCENTRICITY   = .000132
INCLINATION    = 42.9993
RA_OF_ASC_NODE = 103.4446
ARG_OF_PERICENTER = 284.6161
MEAN_ANOMALY   = 192.8622

EPHEMERIS_TYPE = 0
CLASSIFICATION_TYPE = U
NORAD_CAT_ID   = 66336
ELEMENT_SET_NO = 999
REV_AT_EPOCH   = 377
BSTAR          = -.17468E-1
MEAN_MOTION_DOT = -.1979535E-1
MEAN_MOTION_DDOT = 0

CCSDS_OMM_VERS = 2.0
CREATION_DATE  = 
ORIGINATOR     = 

OBJECT_NAME    = STARLINK-34783
OBJECT_ID      = 2025-253U
CENTER_NAME    = EARTH
REF_FRAME      = TEME
TIME_SYSTEM    = UTC
MEAN_ELEMENT_THEORY = SGP/SGP4

EPOCH          = 2025-11-22T12:00:02.998944
MEAN_MOTION    = 15.70841839
ECCENTRICITY   = .0001329
INCLINATION    = 42.9994
RA_OF_ASC_NODE = 103.4257
ARG_OF_PERICENTER = 282.2638
MEAN_ANOMALY   = 202.8837

EPHEMERIS_TYPE = 0
CLASSIFICATION_TYPE = U
NORAD_CAT_ID   = 66337
ELEMENT_SET_NO = 999
REV_AT_EPOCH   = 372
BSTAR          = -.17503E-1
MEAN_MOTION_DOT = -.1983149E-1
MEAN_MOTION_DDOT = 0

CCSDS_OMM_VERS = 2.0
CREATION_DATE  = 
ORIGINATOR     = 

OBJECT_NAME    = STARLINK-35477
OBJECT_ID      = 2025-253V
CENTER_NAME    = EARTH
REF_FRAME      = TEME
TIME_SYSTEM    = UTC
MEAN_ELEMENT_THEORY = SGP/SGP4

EPOCH          = 2025-11-22T12:00:02.998944
MEAN_MOTION    = 15.70840982
ECCENTRICITY   = .0001301
INCLINATION    = 42.9993
RA_OF_ASC_NODE = 103.4357
ARG_OF_PERICENTER = 281.2799
MEAN_ANOMALY   = 200.0347

EPHEMERIS_TYPE = 0
CLASSIFICATION_TYPE = U
NORAD_CAT_ID   = 66338
ELEMENT_SET_NO = 999
REV_AT_EPOCH   = 377
BSTAR          = -.17496E-1
MEAN_MOTION_DOT = -.1982331E-1
MEAN_MOTION_DDOT = 0

CCSDS_OMM_VERS = 2.0
CREATION_DATE  = 
ORIGINATOR     = 

OBJECT_NAME    = STARLINK-35443
OBJECT_ID      = 2025-253W
CENTER_NAME    = EARTH
REF_FRAME      = TEME
TIME_SYSTEM    = UTC
MEAN_ELEMENT_THEORY = SGP/SGP4

EPOCH          = 2025-11-22T12:00:02.998944
MEAN_MOTION    = 15.70806534
ECCENTRICITY   = .0001064
INCLINATION    = 42.9992
RA_OF_ASC_NODE = 103.4099
ARG_OF_PERICENTER = 279.6833
MEAN_ANOMALY   = 211.2645

EPHEMERIS_TYPE = 0
CLASSIFICATION_TYPE = U
NORAD_CAT_ID   = 66339
ELEMENT_SET_NO = 999
REV_AT_EPOCH   = 372
BSTAR          = -.17404E-1
MEAN_MOTION_DOT = -.1970458E-1
MEAN_MOTION_DDOT = 0

CCSDS_OMM_VERS = 2.0
CREATION_DATE  = 
ORIGINATOR     = 

OBJECT_NAME    = STARLINK-35218
OBJECT_ID      = 2025-253X
CENTER_NAME    = EARTH
REF_FRAME      = TEME
TIME_SYSTEM    = UTC
MEAN_ELEMENT_THEORY = SGP/SGP4

EPOCH          = 2025-11-22T12:00:02.998944
MEAN_MOTION    = 15.70841121
ECCENTRICITY   = .0001297
INCLINATION    = 42.9994
RA_OF_ASC_NODE = 103.4394
ARG_OF_PERICENTER = 280.6563
MEAN_ANOMALY   = 198.7414

EPHEMERIS_TYPE = 0
CLASSIFICATION_TYPE = U
NORAD_CAT_ID   = 66340
ELEMENT_SET_NO = 999
REV_AT_EPOCH   = 377
BSTAR          = -.17498E-1
MEAN_MOTION_DOT = -.1982568E-1
MEAN_MOTION_DDOT = 0

CCSDS_OMM_VERS = 2.0
CREATION_DATE  = 
ORIGINATOR     = 

OBJECT_NAME    = STARLINK-35522
OBJECT_ID      = 2025-253Y
CENTER_NAME    = EARTH
REF_FRAME      = TEME
TIME_SYSTEM    = UTC
MEAN_ELEMENT_THEORY = SGP/SGP4

EPOCH          = 2025-11-22T12:00:02.998944
MEAN_MOTION    = 15.70845013
ECCENTRICITY   = .0001337
INCLINATION    = 42.9994
RA_OF_ASC_NODE = 103.4605
ARG_OF_PERICENTER = 281.5524
MEAN_ANOMALY   = 190.1720

EPHEMERIS_TYPE = 0
CLASSIFICATION_TYPE = U
NORAD_CAT_ID   = 66341
ELEMENT_SET_NO = 999
REV_AT_EPOCH   = 377
BSTAR          = -.17517E-1
MEAN_MOTION_DOT = -.1984814E-1
MEAN_MOTION_DDOT = 0

CCSDS_OMM_VERS = 2.0
CREATION_DATE  = 
ORIGINATOR     = 

OBJECT_NAME    = STARLINK-35535
OBJECT_ID      = 2025-253Z
CENTER_NAME    = EARTH
REF_FRAME      = TEME
TIME_SYSTEM    = UTC
MEAN_ELEMENT_THEORY = SGP/SGP4

EPOCH          = 2025-11-22T12:00:02.998944
MEAN_MOTION    = 15.70845326
ECCENTRICITY   = .0001337
INCLINATION    = 42.9993
RA_OF_ASC_NODE = 103.4149
ARG_OF_PERICENTER = 280.7128
MEAN_ANOMALY   = 208.2659

EPHEMERIS_TYPE = 0
CLASSIFICATION_TYPE = U
NORAD_CAT_ID   = 66342
ELEMENT_SET_NO = 999
REV_AT_EPOCH   = 367
BSTAR          = -.17535E-1
MEAN_MOTION_DOT = -.1986613E-1
MEAN_MOTION_DDOT = 0

CCSDS_OMM_VERS = 2.0
CREATION_DATE  = 
ORIGINATOR     = 

OBJECT_NAME    = STARLINK-35467
OBJECT_ID      = 2025-253AA
CENTER_NAME    = EARTH
REF_FRAME      = TEME
TIME_SYSTEM    = UTC
MEAN_ELEMENT_THEORY = SGP/SGP4

EPOCH          = 2025-11-22T12:00:02.998944
MEAN_MOTION    = 15.70840876
ECCENTRICITY   = .000127
INCLINATION    = 42.9993
RA_OF_ASC_NODE = 103.4193
ARG_OF_PERICENTER = 278.8812
MEAN_ANOMALY   = 208.1837

EPHEMERIS_TYPE = 0
CLASSIFICATION_TYPE = U
NORAD_CAT_ID   = 66343
ELEMENT_SET_NO = 999
REV_AT_EPOCH   = 367
BSTAR          = -.17484E-1
MEAN_MOTION_DOT = -.1981075E-1
MEAN_MOTION_DDOT = 0

CCSDS_OMM_VERS = 2.0
CREATION_DATE  = 
ORIGINATOR     = 

OBJECT_NAME    = STARLINK-35511
OBJECT_ID      = 2025-253AB
CENTER_NAME    = EARTH
REF_FRAME      = TEME
TIME_SYSTEM    = UTC
MEAN_ELEMENT_THEORY = SGP/SGP4

EPOCH          = 2025-11-22T12:00:02.998944
MEAN_MOTION    = 15.70838608
ECCENTRICITY   = .0001254
INCLINATION    = 42.9993
RA_OF_ASC_NODE = 103.3960
ARG_OF_PERICENTER = 279.7266
MEAN_ANOMALY   = 216.9256

EPHEMERIS_TYPE = 0
CLASSIFICATION_TYPE = U
NORAD_CAT_ID   = 66344
ELEMENT_SET_NO = 999
REV_AT_EPOCH   = 367
BSTAR          = -.17466E-1
MEAN_MOTION_DOT = -.1979087E-1
MEAN_MOTION_DDOT = 0

